[
  {
    "PostCode": "19400",
    "Name": "ΠΑΙΑΝΙΑ"
  },
  {
    "PostCode": "25200",
    "Name": "ΑΓΙΟΣ ΣΤΕΦΑΝΟΣ(ΩΛΕΝΙΑΣ)"
  },
  {
    "PostCode": "14234",
    "Name": "Ν.ΙΩΝΙΑ"
  },
  {
    "PostCode": "57010",
    "Name": "ΡΕΤΖΙΚΙ"
  },
  {
    "PostCode": "56334",
    "Name": "ΚΟΡΔΕΛΙΟ"
  },
  {
    "PostCode": "17671",
    "Name": "ΚΑΛΛΙΘΕΑ"
  },
  {
    "PostCode": "57008",
    "Name": "ΙΩΝΙΑ"
  },
  {
    "PostCode": "19003",
    "Name": "ΜΑΡΚΟΠΟΥΛΟ"
  },
  {
    "PostCode": "10673",
    "Name": "ΚΟΛΩΝΑΚΙ"
  },
  {
    "PostCode": "17676",
    "Name": "ΚΑΛΛΙΘΕΑ"
  },
  {
    "PostCode": "18233",
    "Name": "ΡΕΝΤΗ"
  },
  {
    "PostCode": "54623",
    "Name": "ΘΕΣΣΑΛΟΝΙΚΗ"
  },
  {
    "PostCode": "49080",
    "Name": "ΚΕΡΚΥΡΑ"
  },
  {
    "PostCode": "19011",
    "Name": "ΑΥΛΩΝΑ"
  },
  {
    "PostCode": "71500",
    "Name": "ΒΟΥΤΕΣ"
  },
  {
    "PostCode": "55535",
    "Name": "ΠΥΛΑΙΑ"
  },
  {
    "PostCode": "56532",
    "Name": "ΣΥΚΙΕΣ"
  },
  {
    "PostCode": "19300",
    "Name": "ΑΣΠΡΟΠΥΡΓΟΣ"
  },
  {
    "PostCode": "71414",
    "Name": "ΒΟΥΤΕΣ"
  },
  {
    "PostCode": "14564",
    "Name": "ΚΗΦΙΣΙΑ"
  },
  {
    "PostCode": "19600",
    "Name": "ΜΑΝΔΡΑ (ΑΤΤΙΚΗΣ)"
  },
  {
    "PostCode": "19100",
    "Name": "ΜΕΓΑΡΑ"
  },
  {
    "PostCode": "19006",
    "Name": "ΝΕΑ ΠΕΡΑΜΟΣ"
  },
  {
    "PostCode": "57400",
    "Name": "ΣΙΝΔΟΣ"
  },
  {
    "PostCode": "54628",
    "Name": "ΜΕΝΕΜΕΝΗ"
  },
  {
    "PostCode": "57009",
    "Name": "ΚΑΛΟΧΩΡΙ"
  },
  {
    "PostCode": "57100",
    "Name": "ΚΟΥΦΑΛΙΑ"
  },
  {
    "PostCode": "19600",
    "Name": "ΜΑΝΔΡΑ"
  },
  {
    "PostCode": "19002",
    "Name": "ΠΑΙΑΝΙΑ"
  },
  {
    "PostCode": "54631",
    "Name": "ΘΕΣΣΑΛΟΝΙΚΗ"
  },
  {
    "PostCode": "57011",
    "Name": "ΠΑΛΑΙΟ ΑΓΙΟΝΕΡΙ"
  },
  {
    "PostCode": "57011",
    "Name": "Ν.ΑΓΙΟΝΕΡΙ"
  },
  {
    "PostCode": "57100",
    "Name": "ΑΘΥΡΑ"
  },
  {
    "PostCode": "57100",
    "Name": "ΑΓ.ΠΕΤΡΟΣ"
  },
  {
    "PostCode": "57100",
    "Name": "ΛΙΒΑΔΙΤΣΑ"
  },
  {
    "PostCode": "57100",
    "Name": "ΡΑΧΩΝΑ"
  },
  {
    "PostCode": "19009",
    "Name": "ΝΤΡΑΦΙ"
  },
  {
    "PostCode": "19009",
    "Name": "ΚΑΛΛΙΤΕΧΝΟΥΠΟΛΗ"
  },
  {
    "PostCode": "19016",
    "Name": "ΒΡΑΥΡΩΝΑ"
  },
  {
    "PostCode": "19005",
    "Name": "ΝΕΟΣ ΒΟΥΤΖΑΣ"
  },
  {
    "PostCode": "19005",
    "Name": "ΜΑΤΙ"
  },
  {
    "PostCode": "19005",
    "Name": "ΑΓ.ΜΑΡΙΝΑ Ν.ΜΑΚΡΗ"
  },
  {
    "PostCode": "19005",
    "Name": "ΑΓ.ΑΝΔΡΕΑΣ"
  },
  {
    "PostCode": "19007",
    "Name": "ΑΓ.ΑΝΔΡΕΑΣ"
  },
  {
    "PostCode": "19007",
    "Name": "ΑΝΩ ΣΟΥ΄ΛΙ"
  },
  {
    "PostCode": "19007",
    "Name": "ΚΑΛΕΝΖΤΙ"
  },
  {
    "PostCode": "19007",
    "Name": "ΓΡΑΜΜΑΤΙΚΟ"
  },
  {
    "PostCode": "15351",
    "Name": "ΣΠΑΤΑ"
  },
  {
    "PostCode": "15344",
    "Name": "ΦΟΥΡΕΣΙ"
  },
  {
    "PostCode": "19004",
    "Name": "ΣΠΑΤΑ"
  },
  {
    "PostCode": "19300",
    "Name": "ΑΝΩ ΦΟΥΣΑ"
  },
  {
    "PostCode": "19300",
    "Name": "ΝΕΑ ΖΩΗ"
  },
  {
    "PostCode": "19300",
    "Name": "ΘΕΣΗ ΚΥΡΙΛΛΟ"
  },
  {
    "PostCode": "19300",
    "Name": "ΘΕΣΗ ΠΕΥΚΟ ΠΑΠΠΟΥ"
  },
  {
    "PostCode": "19300",
    "Name": "ΛΑΚΚΟΣ ΚΑΤΣΑΡΗ"
  },
  {
    "PostCode": "19300",
    "Name": "ΝΕΟΚΤΙΣΤΑ"
  },
  {
    "PostCode": "19300",
    "Name": "ΤΖΑΒΕΡΔΕΛΑ"
  },
  {
    "PostCode": "19300",
    "Name": "ΣΚΑΡΑΜΑΓΚΑΣ"
  },
  {
    "PostCode": "19300",
    "Name": "ΑΦΙΑ"
  },
  {
    "PostCode": "19300",
    "Name": "ΓΚΟΡΥΤΣΑ"
  },
  {
    "PostCode": "19300",
    "Name": "ΘΕΣΗ ΚΑΛΙΣΤΗΡΙ"
  },
  {
    "PostCode": "19300",
    "Name": "ΘΕΣΗ ΡΥΚΙΑ"
  },
  {
    "PostCode": "19300",
    "Name": "ΑΓ.ΠΑΡΑΣΚΕΥΗ"
  },
  {
    "PostCode": "19300",
    "Name": "ΣΥΝΤΡΒΑΝΙ"
  },
  {
    "PostCode": "19300",
    "Name": "ΘΕΣΗ ΣΠΑΣΜΕΝΗ ΠΕΤΡΑ"
  },
  {
    "PostCode": "19300",
    "Name": "ΘΕΣΗ ΚΑΡΙΒΕΡΔΙ"
  },
  {
    "PostCode": "19300",
    "Name": "ΘΕΣΗ ΦΑΚΑ"
  },
  {
    "PostCode": "19300",
    "Name": "ΘΕΣΗ ΜΑΥΡΗ ΩΡΑ"
  },
  {
    "PostCode": "19300",
    "Name": "ΘΕΣΗ ΤΡΥΠΑ ΑΛΕΠΟΥΣ"
  },
  {
    "PostCode": "19300",
    "Name": "ΘΕΣΗ ΠΗΛΙΧΟ"
  },
  {
    "PostCode": "19300",
    "Name": "ΘΕΣΗ ΤΖΙΤΖΙΛΙ"
  },
  {
    "PostCode": "19300",
    "Name": "ΑΓ.ΙΩΑΝΝΗΣ ΝΗΣΤΙΚΟΣ"
  },
  {
    "PostCode": "19300",
    "Name": "ΑΓ.ΓΕΩΡΓΙΟΣ"
  },
  {
    "PostCode": "19500",
    "Name": "ΛΕΓΡΕΝΑ"
  },
  {
    "PostCode": "19400",
    "Name": "ΚΑΜΑΡΙΖΑ"
  },
  {
    "PostCode": "19013",
    "Name": "ΓΑΛΑΖΙΑ ΑΚΤΗ"
  },
  {
    "PostCode": "19400",
    "Name": "ΝΤΕΛΕΝΙΑ"
  },
  {
    "PostCode": "19500",
    "Name": "ΛΑΥΡΙΟ"
  },
  {
    "PostCode": "19500",
    "Name": "ΑΓ.ΓΕΡΑΣΙΜΟΣ"
  },
  {
    "PostCode": "19500",
    "Name": "ΣΟΥΝΙΟ"
  },
  {
    "PostCode": "19001",
    "Name": "ΚΕΡΑΤΕΑ"
  },
  {
    "PostCode": "19001",
    "Name": "ΤΡΑΤΟΛΙΜΑΝΟ"
  },
  {
    "PostCode": "19001",
    "Name": "ΒΓΕΦΙ"
  },
  {
    "PostCode": "13341",
    "Name": "ΖΟΦΡΙΑ"
  },
  {
    "PostCode": "13676",
    "Name": "ΑΜΥΓΔΑΛΕΖΑ"
  },
  {
    "PostCode": "13671",
    "Name": "ΚΟΚΚΙΝΟΣ ΜΥΛΟΣ"
  },
  {
    "PostCode": "13676",
    "Name": "ΘΡΑΚΟΜΑΚΕΔΩΝΕΣ"
  },
  {
    "PostCode": "19100",
    "Name": "ΝΕΑ ΠΕΡΑΜΟΣ"
  },
  {
    "PostCode": "19006",
    "Name": "Ν.ΠΕΡΑΜΟΣ"
  },
  {
    "PostCode": "14569",
    "Name": "ΑΝΟΙΞΗ"
  },
  {
    "PostCode": "14572",
    "Name": "ΔΡΟΣΙΑ"
  },
  {
    "PostCode": "14574",
    "Name": "ΡΟΔΟΠΟΛΗ"
  },
  {
    "PostCode": "14576",
    "Name": "ΔΙΟΝΥΣΟΣ"
  },
  {
    "PostCode": "14578",
    "Name": "ΕΚΑΛΗ"
  },
  {
    "PostCode": "19014",
    "Name": "ΚΑΠΑΝΔΡΙΤΙ"
  },
  {
    "PostCode": "14575",
    "Name": "ΣΤΑΜΑΤΑ"
  },
  {
    "PostCode": "19400",
    "Name": "ΚΟΡΩΠΙ"
  },
  {
    "PostCode": "19003",
    "Name": "ΠΟΡΤΟ ΡΑΦΤΗ"
  },
  {
    "PostCode": "13341",
    "Name": "ΑΝΩ ΛΙΟΣΙΑ"
  },
  {
    "PostCode": "57011",
    "Name": "ΜΙΚΡΟΚΑΜΠΟΣ"
  },
  {
    "PostCode": "57008",
    "Name": "ΔΙΑΒΑΤΑ"
  },
  {
    "PostCode": "15773",
    "Name": "ΖΩΓΡΑΦΟΥ"
  },
  {
    "PostCode": "54500",
    "Name": "ΠΕΝΤΑΛΟΦΟΣ-ΝΕΟΧΩΡΟΥΔΑ"
  },
  {
    "PostCode": "11527",
    "Name": "ΕΛΛΗΝΟΡΩΣΩΝ"
  },
  {
    "PostCode": "54500",
    "Name": "ΛΗΤΗ"
  },
  {
    "PostCode": "54500",
    "Name": "ΔΡΥΜΟΣ"
  },
  {
    "PostCode": "54500",
    "Name": "Ν.ΣΑΝΤΑ"
  },
  {
    "PostCode": "57200",
    "Name": "ΠΕΡΙΒΟΛΑΚΙ"
  },
  {
    "PostCode": "57200",
    "Name": "ΗΡΑΚΛΕΙΟ (ΛΑΓΚΑΔΑ)"
  },
  {
    "PostCode": "54500",
    "Name": "ΛΑΓΥΝΑ"
  },
  {
    "PostCode": "57200",
    "Name": "ΚΑΒΑΛΛΑΡΙ"
  },
  {
    "PostCode": "57010",
    "Name": "ΦΙΛΥΡΟ"
  },
  {
    "PostCode": "57200",
    "Name": "ΑΓ.ΒΑΣΙΛΕΙΟΣ"
  },
  {
    "PostCode": "57010",
    "Name": "ΕΞΟΧΗ"
  },
  {
    "PostCode": "57010",
    "Name": "ΧΟΡΤΙΑΤΗΣ"
  },
  {
    "PostCode": "57200",
    "Name": "ΒΑΣΙΛΟΥΔΙ"
  },
  {
    "PostCode": "57200",
    "Name": "ΓΕΡΑΚΑΡΟΥ"
  },
  {
    "PostCode": "57200",
    "Name": "ΧΡΥΣΑΥΓΗ"
  },
  {
    "PostCode": "57200",
    "Name": "ΚΟΛΧΙΚΟ"
  },
  {
    "PostCode": "57200",
    "Name": "ΠΕΝΤΕ ΒΡΥΣΕΣ"
  },
  {
    "PostCode": "57200",
    "Name": "ΠΟΛΥΔΕΝΔΡΙ"
  },
  {
    "PostCode": "57200",
    "Name": "ΓΑΛΗΝΗ"
  },
  {
    "PostCode": "57200",
    "Name": "ΟΣΣΑ"
  },
  {
    "PostCode": "14422",
    "Name": "Ν.ΗΡΑΚΛΕΙΟ"
  },
  {
    "PostCode": "19010",
    "Name": "ΚΕΡΑΤΕΑ"
  },
  {
    "PostCode": "19010",
    "Name": "ΚΑΛΥΒΙΑ"
  },
  {
    "PostCode": "19013",
    "Name": "ΑΝΑΒΥΣΣΟΣ"
  },
  {
    "PostCode": "19013",
    "Name": "ΣΑΡΩΝΙΔΑ"
  },
  {
    "PostCode": "19400",
    "Name": "ΑΓ.ΜΑΡΙΝΑ"
  },
  {
    "PostCode": "19013",
    "Name": "ΛΑΓΟΝΗΣΙ"
  },
  {
    "PostCode": "57200",
    "Name": "ΒΕΡΤΙΣΚΟΣ"
  },
  {
    "PostCode": "57017",
    "Name": "ΚΑΡΤΕΡΑΙ"
  },
  {
    "PostCode": "57017",
    "Name": "ΛΕΥΚΟΧΩΡΙ"
  },
  {
    "PostCode": "57017",
    "Name": "ΣΤΕΦΑΝΙΑ"
  },
  {
    "PostCode": "57017",
    "Name": "ΜΕΛΑΝΘΙΟ"
  },
  {
    "PostCode": "57200",
    "Name": "ΕΞΑΜΙΛΙΟ"
  },
  {
    "PostCode": "12461",
    "Name": "ΧΑΪΔΑΡΙ"
  },
  {
    "PostCode": "57200",
    "Name": "ΚΡΙΘΙΑ"
  },
  {
    "PostCode": "57200",
    "Name": "ΑΣΣΗΡΟΣ"
  },
  {
    "PostCode": "57017",
    "Name": "ΞΥΛΟΥΠΟΛΗ"
  },
  {
    "PostCode": "57017",
    "Name": "ΔΟΡΚΑΔΑ"
  },
  {
    "PostCode": "57001",
    "Name": "ΘΕΡΜΗ-Ν.ΡΥΣΙΟ"
  },
  {
    "PostCode": "57001",
    "Name": "ΤΑΓΑΡΑΔΕΣ"
  },
  {
    "PostCode": "57001",
    "Name": "ΑΓΙΑ ΠΑΡΑΣΚΕΥΗ"
  },
  {
    "PostCode": "57006",
    "Name": "ΑΓΙΟΣ ΑΝΤΩΝΙΟΣ"
  },
  {
    "PostCode": "57006",
    "Name": "ΣΟΥΡΩΤΗ"
  },
  {
    "PostCode": "57006",
    "Name": "ΒΑΣΙΛΙΚΑ"
  },
  {
    "PostCode": "57006",
    "Name": "ΛΙΒΑΔΙ"
  },
  {
    "PostCode": "57006",
    "Name": "ΠΕΡΙΣΤΕΡΑ"
  },
  {
    "PostCode": "57006",
    "Name": "ΛΑΚΚΙΑ"
  },
  {
    "PostCode": "57001",
    "Name": "Ν.ΡΑΙΔΕΣΤΟΣ"
  },
  {
    "PostCode": "63073",
    "Name": "ΑΓΙΑ ΑΝΑΣΤΑΣΙΑ"
  },
  {
    "PostCode": "57006",
    "Name": "ΓΑΛΑΡΙΝΟΣ"
  },
  {
    "PostCode": "63073",
    "Name": "Ι.ΜΟΝΗ ΑΓ.ΑΝΑΣΤΑΣΙΑΣ"
  },
  {
    "PostCode": "57001",
    "Name": "Ν.ΡΥΣΙΟ"
  },
  {
    "PostCode": "57500",
    "Name": "ΕΠΑΝΩΜΗ"
  },
  {
    "PostCode": "57004",
    "Name": "Ν.ΜΗΧΑΝΙΩΝΑ"
  },
  {
    "PostCode": "57019",
    "Name": "ΠΕΡΑΙΑ"
  },
  {
    "PostCode": "57019",
    "Name": "ΚΕΡΑΣΙΆ"
  },
  {
    "PostCode": "57019",
    "Name": "ΑΓΙΑ ΤΡΙΑΔΑ"
  },
  {
    "PostCode": "57019",
    "Name": "Ν.ΕΠΙΒΑΤΕΣ"
  },
  {
    "PostCode": "57019",
    "Name": "ΑΓΓΕΛΟΧΩΡΙ"
  },
  {
    "PostCode": "57500",
    "Name": "ΠΛΑΓΙΑΡΙ"
  },
  {
    "PostCode": "57500",
    "Name": "ΤΡΙΛΟΦΟΣ"
  },
  {
    "PostCode": "57500",
    "Name": "ΜΕΣΗΜΕΡΙ"
  },
  {
    "PostCode": "57500",
    "Name": "ΑΝΩ ΣΧΟΛΑΡΙ"
  },
  {
    "PostCode": "57500",
    "Name": "ΚΑΤΩ ΣΧΟΛΑΡΙ"
  },
  {
    "PostCode": "57500",
    "Name": "ΚΑΡΔΊΑ"
  },
  {
    "PostCode": "57001",
    "Name": "ΓΕΩΡΓΙΚΗΣ ΣΧΟΛΗΣ"
  },
  {
    "PostCode": "15125",
    "Name": "ΜΑΡΟΥΣΙ"
  },
  {
    "PostCode": "54628",
    "Name": "Β' ΚΤΕΟ Κ.Τ.Ε.Ο. ΚΑΛΟΧΩΡΙ"
  },
  {
    "PostCode": "57010",
    "Name": "ΠΕΥΚΑ"
  },
  {
    "PostCode": "57010",
    "Name": "ΑΣΒΕΣΤΟΧΩΡΙ"
  },
  {
    "PostCode": "57200",
    "Name": "ΠΕΡΙΟΧΗ ΛΑΓΚΑΔΑ"
  },
  {
    "PostCode": "57002",
    "Name": "ΣΟΧΟΣ"
  },
  {
    "PostCode": "57200",
    "Name": "ΛΑΓΚΑΔΑΣ"
  },
  {
    "PostCode": "12131",
    "Name": "ΠΕΡΙΣΤΕΡΙ"
  },
  {
    "PostCode": "14452",
    "Name": "ΜΕΤΑΜΟΡΦΩΣΗ"
  },
  {
    "PostCode": "10563",
    "Name": "ΣΥΝΤΑΓΜΑ"
  },
  {
    "PostCode": "14234",
    "Name": "ΝΕΑ ΙΩΝΙΑ"
  },
  {
    "PostCode": "17456",
    "Name": "ΑΛΙΜΟΣ"
  },
  {
    "PostCode": "15122",
    "Name": "ΜΑΡΟΥΣΙ"
  },
  {
    "PostCode": "13672",
    "Name": "ΑΧΑΡΝΑΙ"
  },
  {
    "PostCode": "15127",
    "Name": "ΜΕΛΙΣΣΙΑ"
  },
  {
    "PostCode": "15343",
    "Name": "ΑΓ.ΠΑΡΑΣΚΕΥΗ"
  },
  {
    "PostCode": "13671",
    "Name": "ΑΧΑΡΝΑΙ"
  },
  {
    "PostCode": "11145",
    "Name": "ΤΡΕΙΣ ΓΕΦΥΡΕΣ"
  },
  {
    "PostCode": "57022",
    "Name": "ΣΙΝΔΟΣ"
  },
  {
    "PostCode": "54249",
    "Name": "ΕΞΟΔΟΣ ΠΡΟΣ ΧΑΛΚΙΔΙΚΗ"
  },
  {
    "PostCode": "57001",
    "Name": "ΦΟΙΝΙΚΑΣ ΠΥΛΑΙΑ"
  },
  {
    "PostCode": "19009",
    "Name": "ΠΙΚΕΡΜΙ"
  },
  {
    "PostCode": "13344",
    "Name": "ΑΝΩ ΛΙΟΣΙΑ"
  },
  {
    "PostCode": "13672",
    "Name": "ΝΕΟ ΜΟΝΟΠΑΤΙ"
  },
  {
    "PostCode": "54621",
    "Name": "ΔΕΘ Δ.Ε.Θ. ΕΚΘΕΣΗ"
  },
  {
    "PostCode": "11745",
    "Name": "ΝΕΟΣ ΚΟΣΜΟΣ"
  },
  {
    "PostCode": "11741",
    "Name": "ΝΕΟΣ ΚΟΣΜΟΣ"
  },
  {
    "PostCode": "56727",
    "Name": "ΝΕΑΠΟΛΗ"
  },
  {
    "PostCode": "19300",
    "Name": "ΚΟΥΝΟΥΠΙΤΣΑ"
  },
  {
    "PostCode": "57008",
    "Name": "ΚΑΛΟΧΩΡΙ"
  },
  {
    "PostCode": "54310",
    "Name": "ΕΛΑΙΩΝΕΣ ΠΥΛΑΙΑΣ"
  },
  {
    "PostCode": "55133",
    "Name": "ΒΥΖΑΝΤΙΟ"
  },
  {
    "PostCode": "56533",
    "Name": "ΜΕΤΕΩΡΑ"
  },
  {
    "PostCode": "56430",
    "Name": "ΝΙΚΟΠΟΛΗ"
  },
  {
    "PostCode": "57001",
    "Name": "ΦΟΙΝΙΚΑΣ"
  },
  {
    "PostCode": "54250",
    "Name": "ΤΕΡΜΑ ΧΑΡΙΛΑΟΥ"
  },
  {
    "PostCode": "57001",
    "Name": "ΤΡΙΑΔΙ"
  },
  {
    "PostCode": "57008",
    "Name": "Α' ΚΤΕΟ Κ.Τ.Ε.Ο. ΚΑΛΟΧΩΡΙ"
  },
  {
    "PostCode": "54250",
    "Name": "ΧΑΡΙΛΑΟΥ"
  },
  {
    "PostCode": "56429",
    "Name": "ΕΥΚΑΡΠΙΑ"
  },
  {
    "PostCode": "56610",
    "Name": "ΔΑΣΟΣ ΣΕΙΧ ΣΟΥ"
  },
  {
    "PostCode": "57008",
    "Name": "Β' ΚΤΕΟ Κ.Τ.Ε.Ο. ΚΑΛΟΧΩΡΙ"
  },
  {
    "PostCode": "54628",
    "Name": "ΛΑΧΑΝΑΓΟΡΑ"
  },
  {
    "PostCode": "18233",
    "Name": "ΑΓΙΟΣ ΙΩΑΝΝΗΣ ΡΕΝΤΗΣ"
  },
  {
    "PostCode": "11521",
    "Name": "ΑΘΗΝΑ"
  },
  {
    "PostCode": "37003",
    "Name": "ΣΚΟΠΕΛΟΣ"
  },
  {
    "PostCode": "21300",
    "Name": "ΚΡΑΝΙΔΙ"
  },
  {
    "PostCode": "28100",
    "Name": "ΚΕΦΑΛΛΟΝΙΑ"
  },
  {
    "PostCode": "82103",
    "Name": "ΧΙΟΣ"
  },
  {
    "PostCode": "81401",
    "Name": "ΛΗΜΝΟΣ"
  },
  {
    "PostCode": "17778",
    "Name": "ΤΑΥΡΟΣ"
  },
  {
    "PostCode": "20000",
    "Name": "ΑΘΗΝΑ"
  },
  {
    "PostCode": "10431",
    "Name": "ΑΘΗΝΑ"
  },
  {
    "PostCode": "54124",
    "Name": "ΑΠΘ Α.Π.Θ."
  },
  {
    "PostCode": "57001",
    "Name": "ΘΕΡΜΗ"
  },
  {
    "PostCode": "19200",
    "Name": "ΕΛΕΥΣΙΝΑ"
  },
  {
    "PostCode": "14451",
    "Name": "ΜΕΤΑΜΟΡΦΩΣΗ"
  },
  {
    "PostCode": "15351",
    "Name": "ΠΑΛΛΗΝΗ"
  },
  {
    "PostCode": "17674",
    "Name": "ΚΑΛΛΙΘΕΑ"
  },
  {
    "PostCode": "14235",
    "Name": "ΚΑΛΟΓΡΕΖΑ"
  },
  {
    "PostCode": "17455",
    "Name": "ΑΛΙΜΟΣ"
  },
  {
    "PostCode": "15126",
    "Name": "ΜΑΡΟΥΣΙ"
  },
  {
    "PostCode": "54636",
    "Name": "40 ΕΚΚΛΗΣΙΕΣ"
  },
  {
    "PostCode": "57013",
    "Name": "ΩΡΑΙΟΚΑΣΤΡΟ"
  },
  {
    "PostCode": "54250",
    "Name": "ΠΥΛΑΙΩΤΙΚΑ"
  },
  {
    "PostCode": "56430",
    "Name": "ΣΤΑΥΡΟΥΠΟΛΗ"
  },
  {
    "PostCode": "54626",
    "Name": "ΘΕΣΣΑΛΟΝΙΚΗ"
  },
  {
    "PostCode": "55133",
    "Name": "ΚΑΛΑΜΑΡΙΑ"
  },
  {
    "PostCode": "90000",
    "Name": "ΑΕΡΟΔΡΟΜΙΟ"
  },
  {
    "PostCode": "10443",
    "Name": "ΑΘΗΝΑΙΩΝ"
  },
  {
    "PostCode": "14563",
    "Name": "ΠΟΛΙΤΕΙΑ"
  },
  {
    "PostCode": "57018",
    "Name": "ΛΗΤΗ"
  },
  {
    "PostCode": "56429",
    "Name": "ΔΕΡΒΕΝΙ ΘΕΣΣΑΛΟΝΙΚΗΣ"
  },
  {
    "PostCode": "55131",
    "Name": "ΚΑΡΑΜΠΟΥΡΝΑΚΙ ΘΕΣΣΑΛΟΝΙΚΗ"
  },
  {
    "PostCode": "55132",
    "Name": "ΚΑΛΑΜΑΡΙΑ"
  },
  {
    "PostCode": "57200",
    "Name": "ΔΕΡΒΕΝΙ ΘΕΣΣΑΛΟΝΙΚΗΣ"
  },
  {
    "PostCode": "54250",
    "Name": "ΑΛΛΑΤΙΝΗ ΧΑΡΙΛΑΟΥ"
  },
  {
    "PostCode": "54636",
    "Name": "ΑΠΘ Α.Π.Θ."
  },
  {
    "PostCode": "54123",
    "Name": "ΔΙΟΙΚΗΤΗΡΙΟ"
  },
  {
    "PostCode": "54632",
    "Name": "ΔΙΟΙΚΗΤΗΡΙΟ"
  },
  {
    "PostCode": "55133",
    "Name": "ΝΤΕΠΩ"
  },
  {
    "PostCode": "54624",
    "Name": "ΠΛΑΤΕΙΑ ΕΛΕΥΘΕΡΙΑΣ"
  },
  {
    "PostCode": "54248",
    "Name": "ΝΤΕΠΩ"
  },
  {
    "PostCode": "56224",
    "Name": "ΕΥΟΣΜΟΣ"
  },
  {
    "PostCode": "18534",
    "Name": "ΠΕΙΡΑΙΑΣ"
  },
  {
    "PostCode": "55535",
    "Name": "ΠΥΛΑΙΩΤΙΚΑ"
  },
  {
    "PostCode": "56224",
    "Name": "ΑΓΡΟΤΙΚΗ ΠΕΡΙΟΧΗ ΕΥΟΣΜΟΥ"
  },
  {
    "PostCode": "17561",
    "Name": "Π.ΦΑΛΗΡΟ"
  },
  {
    "PostCode": "18452",
    "Name": "ΝΙΚΑΙΑ"
  },
  {
    "PostCode": "18122",
    "Name": "ΚΟΡΥΔΑΛΛΟΣ"
  },
  {
    "PostCode": "11528",
    "Name": "ΑΘΗΝΑ"
  },
  {
    "PostCode": "19100",
    "Name": "ΑΣΠΡΟΠΥΡΓΟΣ"
  },
  {
    "PostCode": "56532",
    "Name": "ΠΕΡΙΦΕΡ. ΕΥΚΑΡΠΙΑ"
  },
  {
    "PostCode": "54638",
    "Name": "Γ' ΣΩΜΑ ΣΤΡΑΤΟΥ"
  },
  {
    "PostCode": "54638",
    "Name": "ΔΕΘ Δ.Ε.Θ. ΕΚΘΕΣΗ"
  },
  {
    "PostCode": "57008",
    "Name": "ΙΩΝΙΑ - Ν. ΜΑΓΝΗΣΙΑ"
  },
  {
    "PostCode": "54625",
    "Name": "ΛΑΔΑΔΙΚΑ"
  },
  {
    "PostCode": "55236",
    "Name": "ΠΑΝΟΡΑΜΑ"
  },
  {
    "PostCode": "55134",
    "Name": "ΦΟΙΝΙΚΑΣ"
  },
  {
    "PostCode": "54628",
    "Name": "ΙΩΝΙΑ"
  },
  {
    "PostCode": "57013",
    "Name": "ΩΡΑΙΟΚΑΣΤΡΟ ΘΕΣΣΑΛΟΝΙΚΗΣ"
  },
  {
    "PostCode": "56533",
    "Name": "ΠΟΛΙΧΝΗ"
  },
  {
    "PostCode": "54352",
    "Name": "ΤΟΥΜΠΑ"
  },
  {
    "PostCode": "56429",
    "Name": "ΩΡΑΙΟΚΑΣΤΡΟ"
  },
  {
    "PostCode": "56429",
    "Name": "ΕΥΚΑΡΠΙΑ ΩΡΑΙΟΚΑΣΤΡΟ"
  },
  {
    "PostCode": "56429",
    "Name": "ΔΕΡΒΕΝΙ"
  },
  {
    "PostCode": "10433",
    "Name": "ΑΘΗΝΑΙΩΝ"
  },
  {
    "PostCode": "10439",
    "Name": "ΑΘΗΝΑΙΩΝ"
  },
  {
    "PostCode": "10441",
    "Name": "ΑΘΗΝΑΙΩΝ"
  },
  {
    "PostCode": "19400",
    "Name": "ΚΙΤΣΙ"
  },
  {
    "PostCode": "55134",
    "Name": "ΦΟΙΝΙΚΑΣ(ΠΥΛΑΙΑ)"
  },
  {
    "PostCode": "57001",
    "Name": "Ν. ΡΑΙΔΕΣΤΟΣ"
  },
  {
    "PostCode": "10445",
    "Name": "ΑΘΗΝΑΙΩΝ"
  },
  {
    "PostCode": "10446",
    "Name": "ΑΘΗΝΑΙΩΝ"
  },
  {
    "PostCode": "10447",
    "Name": "ΑΘΗΝΑΙΩΝ"
  },
  {
    "PostCode": "10556",
    "Name": "ΑΘΗΝΑΙΩΝ"
  },
  {
    "PostCode": "10672",
    "Name": "ΑΘΗΝΑΙΩΝ"
  },
  {
    "PostCode": "11141",
    "Name": "ΑΘΗΝΑΙΩΝ"
  },
  {
    "PostCode": "11143",
    "Name": "ΑΘΗΝΑΙΩΝ"
  },
  {
    "PostCode": "11144",
    "Name": "ΑΘΗΝΑΙΩΝ"
  },
  {
    "PostCode": "11145",
    "Name": "ΑΘΗΝΑΙΩΝ"
  },
  {
    "PostCode": "11147",
    "Name": "ΓΑΛΑΤΣΙΟΥ"
  },
  {
    "PostCode": "11253",
    "Name": "ΑΘΗΝΑΙΩΝ"
  },
  {
    "PostCode": "11254",
    "Name": "ΑΘΗΝΑΙΩΝ"
  },
  {
    "PostCode": "11255",
    "Name": "ΑΘΗΝΑΙΩΝ"
  },
  {
    "PostCode": "11361",
    "Name": "ΑΘΗΝΑΙΩΝ"
  },
  {
    "PostCode": "11362",
    "Name": "ΑΘΗΝΑΙΩΝ"
  },
  {
    "PostCode": "11363",
    "Name": "ΑΘΗΝΑΙΩΝ"
  },
  {
    "PostCode": "11364",
    "Name": "ΑΘΗΝΑΙΩΝ"
  },
  {
    "PostCode": "11473",
    "Name": "ΑΘΗΝΑΙΩΝ"
  },
  {
    "PostCode": "11474",
    "Name": "ΑΘΗΝΑΙΩΝ"
  },
  {
    "PostCode": "11475",
    "Name": "ΑΘΗΝΑΙΩΝ"
  },
  {
    "PostCode": "11476",
    "Name": "ΑΘΗΝΑΙΩΝ"
  },
  {
    "PostCode": "11521",
    "Name": "ΑΘΗΝΑΙΩΝ"
  },
  {
    "PostCode": "11528",
    "Name": "ΑΘΗΝΑΙΩΝ"
  },
  {
    "PostCode": "11631",
    "Name": "ΑΘΗΝΑΙΩΝ"
  },
  {
    "PostCode": "11632",
    "Name": "ΑΘΗΝΑΙΩΝ"
  },
  {
    "PostCode": "11633",
    "Name": "ΑΘΗΝΑΙΩΝ"
  },
  {
    "PostCode": "11634",
    "Name": "ΑΘΗΝΑΙΩΝ"
  },
  {
    "PostCode": "11636",
    "Name": "ΑΘΗΝΑΙΩΝ"
  },
  {
    "PostCode": "11741",
    "Name": "ΑΘΗΝΑΙΩΝ"
  },
  {
    "PostCode": "11742",
    "Name": "ΑΘΗΝΑΙΩΝ"
  },
  {
    "PostCode": "11743",
    "Name": "ΑΘΗΝΑΙΩΝ"
  },
  {
    "PostCode": "11744",
    "Name": "ΑΘΗΝΑΙΩΝ"
  },
  {
    "PostCode": "11745",
    "Name": "ΑΘΗΝΑΙΩΝ"
  },
  {
    "PostCode": "11851",
    "Name": "ΑΘΗΝΑΙΩΝ"
  },
  {
    "PostCode": "11852",
    "Name": "ΑΘΗΝΑΙΩΝ"
  },
  {
    "PostCode": "11853",
    "Name": "ΑΘΗΝΑΙΩΝ"
  },
  {
    "PostCode": "11855",
    "Name": "ΑΘΗΝΑΙΩΝ"
  },
  {
    "PostCode": "12131",
    "Name": "ΠΕΡΙΣΤΕΡΙΟΥ"
  },
  {
    "PostCode": "12132",
    "Name": "ΠΕΡΙΣΤΕΡΙΟΥ"
  },
  {
    "PostCode": "12134",
    "Name": "ΠΕΡΙΣΤΕΡΙΟΥ"
  },
  {
    "PostCode": "12136",
    "Name": "ΠΕΡΙΣΤΕΡΙΟΥ"
  },
  {
    "PostCode": "12241",
    "Name": "ΑΙΓΑΛΕΩ"
  },
  {
    "PostCode": "12243",
    "Name": "ΑΙΓΑΛΕΩ"
  },
  {
    "PostCode": "12244",
    "Name": "ΑΙΓΑΛΕΩ"
  },
  {
    "PostCode": "12351",
    "Name": "ΑΓΙΑΣ ΒΑΡΒΑΡΑΣ"
  },
  {
    "PostCode": "13121",
    "Name": "ΝΕΩΝ ΛΙΟΣΙΩΝ (ΙΛΙΟΥ)"
  },
  {
    "PostCode": "13122",
    "Name": "ΝΕΩΝ ΛΙΟΣΙΩΝ (ΙΛΙΟΥ)"
  },
  {
    "PostCode": "13122",
    "Name": "ΑΓΙΩΝ ΑΝΑΡΓΥΡΩΝ"
  },
  {
    "PostCode": "13123",
    "Name": "ΝΕΩΝ ΛΙΟΣΙΩΝ (ΙΛΙΟΥ)"
  },
  {
    "PostCode": "13123",
    "Name": "ΠΕΤΡΟΥΠΟΛΗΣ"
  },
  {
    "PostCode": "13231",
    "Name": "ΠΕΤΡΟΥΠΟΛΗΣ"
  },
  {
    "PostCode": "13341",
    "Name": "ΖΕΦΥΡΙΟΥ"
  },
  {
    "PostCode": "13561",
    "Name": "ΑΓΙΩΝ ΑΝΑΡΓΥΡΩΝ"
  },
  {
    "PostCode": "13562",
    "Name": "ΑΓΙΩΝ ΑΝΑΡΓΥΡΩΝ"
  },
  {
    "PostCode": "13672",
    "Name": "ΑΧΑΡΝΩΝ"
  },
  {
    "PostCode": "13674",
    "Name": "ΑΧΑΡΝΩΝ"
  },
  {
    "PostCode": "14122",
    "Name": "ΗΡΑΚΛΕΙΟΥ"
  },
  {
    "PostCode": "14123",
    "Name": "ΛΥΚΟΒΡΥΣΗΣ"
  },
  {
    "PostCode": "14231",
    "Name": "ΗΡΑΚΛΕΙΟΥ"
  },
  {
    "PostCode": "14231",
    "Name": "ΝΕΑΣ ΙΩΝΙΑΣ"
  },
  {
    "PostCode": "14232",
    "Name": "ΝΕΑΣ ΙΩΝΙΑΣ"
  },
  {
    "PostCode": "14233",
    "Name": "ΝΕΑΣ ΙΩΝΙΑΣ"
  },
  {
    "PostCode": "14234",
    "Name": "ΝΕΑΣ ΙΩΝΙΑΣ"
  },
  {
    "PostCode": "14235",
    "Name": "ΝΕΑΣ ΙΩΝΙΑΣ"
  },
  {
    "PostCode": "14341",
    "Name": "ΝΕΑΣ ΦΙΛΑΔΕΛΦΕΙΑΣ"
  },
  {
    "PostCode": "14343",
    "Name": "ΝΕΑΣ ΧΑΛΚΗΔΟΝΑΣ"
  },
  {
    "PostCode": "14451",
    "Name": "ΜΕΤΑΜΟΡΦΩΣΗΣ"
  },
  {
    "PostCode": "14561",
    "Name": "ΚΗΦΙΣΙΑΣ"
  },
  {
    "PostCode": "14562",
    "Name": "ΚΗΦΙΣΙΑΣ"
  },
  {
    "PostCode": "14563",
    "Name": "ΚΗΦΙΣΙΑΣ"
  },
  {
    "PostCode": "14564",
    "Name": "ΚΗΦΙΣΙΑΣ"
  },
  {
    "PostCode": "15122",
    "Name": "ΑΜΑΡΟΥΣΙΟΥ"
  },
  {
    "PostCode": "15123",
    "Name": "ΑΜΑΡΟΥΣΙΟΥ"
  },
  {
    "PostCode": "15124",
    "Name": "ΑΜΑΡΟΥΣΙΟΥ"
  },
  {
    "PostCode": "15125",
    "Name": "ΑΜΑΡΟΥΣΙΟΥ"
  },
  {
    "PostCode": "15127",
    "Name": "ΜΕΛΙΣΣΙΩΝ"
  },
  {
    "PostCode": "15127",
    "Name": "ΚΗΦΙΣΙΑΣ"
  },
  {
    "PostCode": "15231",
    "Name": "ΧΑΛΑΝΔΡΙΟΥ"
  },
  {
    "PostCode": "15232",
    "Name": "ΧΑΛΑΝΔΡΙΟΥ"
  },
  {
    "PostCode": "15233",
    "Name": "ΧΑΛΑΝΔΡΙΟΥ"
  },
  {
    "PostCode": "15234",
    "Name": "ΧΑΛΑΝΔΡΙΟΥ"
  },
  {
    "PostCode": "15235",
    "Name": "ΒΡΙΛΗΣΣΙΩΝ"
  },
  {
    "PostCode": "15237",
    "Name": "ΦΙΛΟΘΕΗΣ"
  },
  {
    "PostCode": "15341",
    "Name": "ΑΓΙΑΣ ΠΑΡΑΣΚΕΥΗΣ"
  },
  {
    "PostCode": "15342",
    "Name": "ΑΓΙΑΣ ΠΑΡΑΣΚΕΥΗΣ"
  },
  {
    "PostCode": "15343",
    "Name": "ΑΓΙΑΣ ΠΑΡΑΣΚΕΥΗΣ"
  },
  {
    "PostCode": "15351",
    "Name": "ΠΑΛΛΗΝΗΣ"
  },
  {
    "PostCode": "15451",
    "Name": "ΝΕΟΥ ΨΥΧΙΚΟΥ"
  },
  {
    "PostCode": "15452",
    "Name": "ΨΥΧΙΚΟΥ"
  },
  {
    "PostCode": "15561",
    "Name": "ΧΟΛΑΡΓΟΥ"
  },
  {
    "PostCode": "15562",
    "Name": "ΧΟΛΑΡΓΟΥ"
  },
  {
    "PostCode": "15771",
    "Name": "ΖΩΓΡΑΦΟΥ"
  },
  {
    "PostCode": "15772",
    "Name": "ΖΩΓΡΑΦΟΥ"
  },
  {
    "PostCode": "16121",
    "Name": "ΚΑΙΣΑΡΙΑΝΗΣ"
  },
  {
    "PostCode": "16122",
    "Name": "ΚΑΙΣΑΡΙΑΝΗΣ"
  },
  {
    "PostCode": "16231",
    "Name": "ΒΥΡΩΝΑ"
  },
  {
    "PostCode": "16232",
    "Name": "ΒΥΡΩΝΑ"
  },
  {
    "PostCode": "16233",
    "Name": "ΒΥΡΩΝΑ"
  },
  {
    "PostCode": "16342",
    "Name": "ΗΛΙΟΥΠΟΛΗΣ"
  },
  {
    "PostCode": "16343",
    "Name": "ΗΛΙΟΥΠΟΛΗΣ"
  },
  {
    "PostCode": "16344",
    "Name": "ΗΛΙΟΥΠΟΛΗΣ"
  },
  {
    "PostCode": "16345",
    "Name": "ΗΛΙΟΥΠΟΛΗΣ"
  },
  {
    "PostCode": "16452",
    "Name": "ΑΡΓΥΡΟΥΠΟΛΗΣ"
  },
  {
    "PostCode": "16671",
    "Name": "ΒΟΥΛΙΑΓΜΕΝΗΣ"
  },
  {
    "PostCode": "16672",
    "Name": "ΒΑΡΗΣ"
  },
  {
    "PostCode": "16673",
    "Name": "ΒΟΥΛΑΣ"
  },
  {
    "PostCode": "16674",
    "Name": "ΓΛΥΦΑΔΑΣ"
  },
  {
    "PostCode": "16675",
    "Name": "ΓΛΥΦΑΔΑΣ"
  },
  {
    "PostCode": "17121",
    "Name": "ΝΕΑΣ ΣΜΥΡΝΗΣ"
  },
  {
    "PostCode": "17122",
    "Name": "ΝΕΑΣ ΣΜΥΡΝΗΣ"
  },
  {
    "PostCode": "17123",
    "Name": "ΝΕΑΣ ΣΜΥΡΝΗΣ"
  },
  {
    "PostCode": "17124",
    "Name": "ΝΕΑΣ ΣΜΥΡΝΗΣ"
  },
  {
    "PostCode": "17234",
    "Name": "ΔΑΦΝΗΣ"
  },
  {
    "PostCode": "17235",
    "Name": "ΔΑΦΝΗΣ"
  },
  {
    "PostCode": "17236",
    "Name": "ΑΓΙΟΥ ΔΗΜΗΤΡΙΟΥ"
  },
  {
    "PostCode": "17236",
    "Name": "ΥΜΗΤΤΟΥ"
  },
  {
    "PostCode": "17237",
    "Name": "ΥΜΗΤΤΟΥ"
  },
  {
    "PostCode": "17341",
    "Name": "ΑΓΙΟΥ ΔΗΜΗΤΡΙΟΥ"
  },
  {
    "PostCode": "17343",
    "Name": "ΑΓΙΟΥ ΔΗΜΗΤΡΙΟΥ"
  },
  {
    "PostCode": "17561",
    "Name": "ΠΑΛΑΙΟΥ ΦΑΛΗΡΟΥ"
  },
  {
    "PostCode": "17562",
    "Name": "ΠΑΛΑΙΟΥ ΦΑΛΗΡΟΥ"
  },
  {
    "PostCode": "17563",
    "Name": "ΠΑΛΑΙΟΥ ΦΑΛΗΡΟΥ"
  },
  {
    "PostCode": "17564",
    "Name": "ΠΑΛΑΙΟΥ ΦΑΛΗΡΟΥ"
  },
  {
    "PostCode": "17672",
    "Name": "ΚΑΛΛΙΘΕΑΣ"
  },
  {
    "PostCode": "18120",
    "Name": "ΚΟΡΥΔΑΛΛΟΥ"
  },
  {
    "PostCode": "18121",
    "Name": "ΚΟΡΥΔΑΛΛΟΥ"
  },
  {
    "PostCode": "18122",
    "Name": "ΚΟΡΥΔΑΛΛΟΥ"
  },
  {
    "PostCode": "18233",
    "Name": "ΑΓΙΟΥ ΙΩΑΝΝΗ ΡΕΝΤΗ"
  },
  {
    "PostCode": "18344",
    "Name": "ΜΟΣΧΑΤΟΥ"
  },
  {
    "PostCode": "18345",
    "Name": "ΜΟΣΧΑΤΟΥ"
  },
  {
    "PostCode": "18450",
    "Name": "ΝΙΚΑΙΑΣ"
  },
  {
    "PostCode": "18451",
    "Name": "ΝΙΚΑΙΑΣ"
  },
  {
    "PostCode": "18452",
    "Name": "ΝΙΚΑΙΑΣ"
  },
  {
    "PostCode": "18453",
    "Name": "ΝΙΚΑΙΑΣ"
  },
  {
    "PostCode": "18454",
    "Name": "ΝΙΚΑΙΑΣ"
  },
  {
    "PostCode": "18454",
    "Name": "ΚΟΡΥΔΑΛΛΟΥ"
  },
  {
    "PostCode": "18532",
    "Name": "ΠΕΙΡΑΙΩΣ"
  },
  {
    "PostCode": "18533",
    "Name": "ΠΕΙΡΑΙΩΣ"
  },
  {
    "PostCode": "18534",
    "Name": "ΠΕΙΡΑΙΩΣ"
  },
  {
    "PostCode": "18535",
    "Name": "ΠΕΙΡΑΙΩΣ"
  },
  {
    "PostCode": "18537",
    "Name": "ΠΕΙΡΑΙΩΣ"
  },
  {
    "PostCode": "18538",
    "Name": "ΠΕΙΡΑΙΩΣ"
  },
  {
    "PostCode": "18539",
    "Name": "ΠΕΙΡΑΙΩΣ"
  },
  {
    "PostCode": "18540",
    "Name": "ΠΕΙΡΑΙΩΣ"
  },
  {
    "PostCode": "18541",
    "Name": "ΠΕΙΡΑΙΩΣ"
  },
  {
    "PostCode": "18542",
    "Name": "ΠΕΙΡΑΙΩΣ"
  },
  {
    "PostCode": "18543",
    "Name": "ΠΕΙΡΑΙΩΣ"
  },
  {
    "PostCode": "18544",
    "Name": "ΠΕΙΡΑΙΩΣ"
  },
  {
    "PostCode": "18546",
    "Name": "ΠΕΙΡΑΙΩΣ"
  },
  {
    "PostCode": "18547",
    "Name": "ΠΕΙΡΑΙΩΣ"
  },
  {
    "PostCode": "18755",
    "Name": "ΚΕΡΑΤΣΙΝΙΟΥ"
  },
  {
    "PostCode": "18756",
    "Name": "ΚΕΡΑΤΣΙΝΙΟΥ"
  },
  {
    "PostCode": "18757",
    "Name": "ΚΕΡΑΤΣΙΝΙΟΥ"
  },
  {
    "PostCode": "18758",
    "Name": "ΚΕΡΑΤΣΙΝΙΟΥ"
  },
  {
    "PostCode": "18863",
    "Name": "ΠΕΡΑΜΑΤΟΣ"
  },
  {
    "PostCode": "13341",
    "Name": "ΑΝΩ ΛΙΟΣΙΩΝ"
  },
  {
    "PostCode": "13342",
    "Name": "ΑΝΩ ΛΙΟΣΙΩΝ"
  },
  {
    "PostCode": "19400",
    "Name": "ΚΡΩΠΙΑΣ"
  },
  {
    "PostCode": "10432",
    "Name": "ΑΘΗΝΑΙΩΝ"
  },
  {
    "PostCode": "10562",
    "Name": "ΑΘΗΝΑΙΩΝ"
  },
  {
    "PostCode": "11257",
    "Name": "ΑΘΗΝΑΙΩΝ"
  },
  {
    "PostCode": "11472",
    "Name": "ΑΘΗΝΑΙΩΝ"
  },
  {
    "PostCode": "13676",
    "Name": "ΘΡΑΚΟΜΑΚΕΔΟΝΩΝ"
  },
  {
    "PostCode": "14565",
    "Name": "ΑΓΙΟΥ ΣΤΕΦΑΝΟΥ"
  },
  {
    "PostCode": "15354",
    "Name": "ΓΛΥΚΩΝ ΝΕΡΩΝ"
  },
  {
    "PostCode": "17676",
    "Name": "ΚΑΛΛΙΘΕΑΣ"
  },
  {
    "PostCode": "19002",
    "Name": "ΠΑΙΑΝΙΑΣ"
  },
  {
    "PostCode": "19004",
    "Name": "ΣΠΑΤΩΝ - ΛΟΥΤΣΑΣ"
  },
  {
    "PostCode": "19200",
    "Name": "ΕΛΕΥΣΙΝΑΣ"
  },
  {
    "PostCode": "19300",
    "Name": "ΑΣΠΡΟΠΥΡΓΟΥ"
  },
  {
    "PostCode": "10558",
    "Name": "ΑΘΗΝΑΙΩΝ"
  },
  {
    "PostCode": "10680",
    "Name": "ΑΘΗΝΑΙΩΝ"
  },
  {
    "PostCode": "11252",
    "Name": "ΑΘΗΝΑΙΩΝ"
  },
  {
    "PostCode": "11525",
    "Name": "ΑΘΗΝΑΙΩΝ"
  },
  {
    "PostCode": "11528",
    "Name": "ΖΩΓΡΑΦΟΥ"
  },
  {
    "PostCode": "11634",
    "Name": "ΚΑΙΣΑΡΙΑΝΗΣ"
  },
  {
    "PostCode": "11635",
    "Name": "ΑΘΗΝΑΙΩΝ"
  },
  {
    "PostCode": "13673",
    "Name": "ΑΧΑΡΝΩΝ"
  },
  {
    "PostCode": "13675",
    "Name": "ΑΧΑΡΝΩΝ"
  },
  {
    "PostCode": "14123",
    "Name": "ΠΕΥΚΗΣ"
  },
  {
    "PostCode": "14569",
    "Name": "ΑΝΟΙΞΗΣ"
  },
  {
    "PostCode": "14575",
    "Name": "ΣΤΑΜΑΤΑΣ"
  },
  {
    "PostCode": "14575",
    "Name": "ΑΝΟΙΞΗΣ"
  },
  {
    "PostCode": "15343",
    "Name": "ΓΕΡΑΚΑ"
  },
  {
    "PostCode": "15344",
    "Name": "ΓΕΡΑΚΑ"
  },
  {
    "PostCode": "15344",
    "Name": "ΠΑΛΛΗΝΗΣ"
  },
  {
    "PostCode": "15451",
    "Name": "ΝΕΑΣ ΕΡΥΘΡΑΙΑΣ"
  },
  {
    "PostCode": "15771",
    "Name": "ΑΘΗΝΑΙΩΝ"
  },
  {
    "PostCode": "16121",
    "Name": "ΑΘΗΝΑΙΩΝ"
  },
  {
    "PostCode": "56334",
    "Name": "ΕΛΕΥΘΕΡΙΟ - ΚΟΡΔΕΛΙΟ"
  },
  {
    "PostCode": "18648",
    "Name": "ΔΡΑΠΕΤΣΩΝΑ"
  },
  {
    "PostCode": "15121",
    "Name": "ΠΕΥΚΗ"
  },
  {
    "PostCode": "19012",
    "Name": "ΠΟΡΤΟ ΓΕΡΜΕΝΟ"
  },
  {
    "PostCode": "13678",
    "Name": "ΜΕΝΙΔΙ"
  },
  {
    "PostCode": "10563",
    "Name": "ΑΘΗΝΑ"
  },
  {
    "PostCode": "54640",
    "Name": "ΘΕΣΣΑΛΟΝΙΚΗ"
  },
  {
    "PostCode": "54249",
    "Name": "ΝΤΕΠΩ"
  },
  {
    "PostCode": "17673",
    "Name": "ΚΑΛΛΙΘΕΑ"
  },
  {
    "PostCode": "10447",
    "Name": "ΑΘΗΝΑ"
  },
  {
    "PostCode": "17778",
    "Name": "ΤΑΥΡΟΥ"
  },
  {
    "PostCode": "11474",
    "Name": "ΑΘΗΝΑ"
  },
  {
    "PostCode": "15561",
    "Name": "ΑΓ.ΠΑΡΑΣΚΕΥΗ"
  },
  {
    "PostCode": "14121",
    "Name": "ΗΡΑΚΛΕΙΟΥ"
  },
  {
    "PostCode": "14342",
    "Name": "ΝΕΑΣ ΦΙΛΑΔΕΛΦΕΙΑΣ"
  },
  {
    "PostCode": "14452",
    "Name": "ΜΕΤΑΜΟΡΦΩΣΗΣ"
  },
  {
    "PostCode": "14576",
    "Name": "ΔΙΟΝΥΣΟΥ"
  },
  {
    "PostCode": "14578",
    "Name": "ΕΚΑΛΗΣ"
  },
  {
    "PostCode": "14671",
    "Name": "ΝΕΑΣ ΕΡΥΘΡΑΙΑΣ"
  },
  {
    "PostCode": "15121",
    "Name": "ΠΕΥΚΗΣ"
  },
  {
    "PostCode": "15236",
    "Name": "ΠΕΝΤΕΛΗΣ"
  },
  {
    "PostCode": "15236",
    "Name": "ΝΕΑΣ ΠΕΝΤΕΛΗΣ"
  },
  {
    "PostCode": "15669",
    "Name": "ΠΑΠΑΓΟΥ"
  },
  {
    "PostCode": "16341",
    "Name": "ΗΛΙΟΥΠΟΛΗΣ"
  },
  {
    "PostCode": "16346",
    "Name": "ΗΛΙΟΥΠΟΛΗΣ"
  },
  {
    "PostCode": "16451",
    "Name": "ΑΡΓΥΡΟΥΠΟΛΗΣ"
  },
  {
    "PostCode": "16561",
    "Name": "ΓΛΥΦΑΔΑΣ"
  },
  {
    "PostCode": "16562",
    "Name": "ΓΛΥΦΑΔΑΣ"
  },
  {
    "PostCode": "16777",
    "Name": "ΕΛΛΗΝΙΚΟΥ"
  },
  {
    "PostCode": "16777",
    "Name": "ΑΡΓΥΡΟΥΠΟΛΗΣ"
  },
  {
    "PostCode": "17342",
    "Name": "ΑΓΙΟΥ ΔΗΜΗΤΡΙΟΥ"
  },
  {
    "PostCode": "17455",
    "Name": "ΑΛΙΜΟΥ"
  },
  {
    "PostCode": "17456",
    "Name": "ΑΛΙΜΟΥ"
  },
  {
    "PostCode": "17675",
    "Name": "ΚΑΛΛΙΘΕΑΣ"
  },
  {
    "PostCode": "18648",
    "Name": "ΔΡΑΠΕΤΣΩΝΑΣ"
  },
  {
    "PostCode": "10442",
    "Name": "ΑΘΗΝΑΙΩΝ"
  },
  {
    "PostCode": "10442",
    "Name": "ΠΕΡΙΣΤΕΡΙΟΥ"
  },
  {
    "PostCode": "10444",
    "Name": "ΑΘΗΝΑΙΩΝ"
  },
  {
    "PostCode": "10557",
    "Name": "ΑΘΗΝΑΙΩΝ"
  },
  {
    "PostCode": "10671",
    "Name": "ΑΘΗΝΑΙΩΝ"
  },
  {
    "PostCode": "10673",
    "Name": "ΑΘΗΝΑΙΩΝ"
  },
  {
    "PostCode": "10674",
    "Name": "ΑΘΗΝΑΙΩΝ"
  },
  {
    "PostCode": "10675",
    "Name": "ΑΘΗΝΑΙΩΝ"
  },
  {
    "PostCode": "10676",
    "Name": "ΑΘΗΝΑΙΩΝ"
  },
  {
    "PostCode": "10682",
    "Name": "ΑΘΗΝΑΙΩΝ"
  },
  {
    "PostCode": "10683",
    "Name": "ΑΘΗΝΑΙΩΝ"
  },
  {
    "PostCode": "11142",
    "Name": "ΑΘΗΝΑΙΩΝ"
  },
  {
    "PostCode": "11146",
    "Name": "ΓΑΛΑΤΣΙΟΥ"
  },
  {
    "PostCode": "11251",
    "Name": "ΑΘΗΝΑΙΩΝ"
  },
  {
    "PostCode": "11523",
    "Name": "ΑΘΗΝΑΙΩΝ"
  },
  {
    "PostCode": "11524",
    "Name": "ΑΘΗΝΑΙΩΝ"
  },
  {
    "PostCode": "11526",
    "Name": "ΑΘΗΝΑΙΩΝ"
  },
  {
    "PostCode": "11527",
    "Name": "ΑΘΗΝΑΙΩΝ"
  },
  {
    "PostCode": "11527",
    "Name": "ΧΑΛΑΝΔΡΙΟΥ"
  },
  {
    "PostCode": "12242",
    "Name": "ΑΙΓΑΛΕΩ"
  },
  {
    "PostCode": "12242",
    "Name": "ΠΕΡΙΣΤΕΡΙΟΥ"
  },
  {
    "PostCode": "12461",
    "Name": "ΧΑΙΔΑΡΙΟΥ"
  },
  {
    "PostCode": "12462",
    "Name": "ΧΑΙΔΑΡΙΟΥ"
  },
  {
    "PostCode": "13671",
    "Name": "ΑΧΑΡΝΩΝ"
  },
  {
    "PostCode": "13123",
    "Name": "ΚΑΜΑΤΕΡΟΥ"
  },
  {
    "PostCode": "13231",
    "Name": "ΝΕΩΝ ΛΙΟΣΙΩΝ (ΙΛΙΟΥ)"
  },
  {
    "PostCode": "15126",
    "Name": "ΑΜΑΡΟΥΣΙΟΥ"
  },
  {
    "PostCode": "16345",
    "Name": "ΥΜΗΤΤΟΥ"
  },
  {
    "PostCode": "17671",
    "Name": "ΚΑΛΛΙΘΕΑΣ"
  },
  {
    "PostCode": "17673",
    "Name": "ΚΑΛΛΙΘΕΑΣ"
  },
  {
    "PostCode": "18536",
    "Name": "ΠΕΙΡΑΙΩΣ"
  },
  {
    "PostCode": "18545",
    "Name": "ΠΕΙΡΑΙΩΣ"
  },
  {
    "PostCode": "10679",
    "Name": "ΑΘΗΝΑ"
  },
  {
    "PostCode": "10561",
    "Name": "ΑΘΗΝΑΙΩΝ"
  },
  {
    "PostCode": "17237",
    "Name": "ΔΑΦΝΗΣ"
  },
  {
    "PostCode": "15235",
    "Name": "ΧΑΛΑΝΔΡΙΟΥ"
  },
  {
    "PostCode": "15349",
    "Name": "ΑΝΘΟΥΣΑΣ"
  },
  {
    "PostCode": "19004",
    "Name": "ΣΠΑΤΩΝ"
  },
  {
    "PostCode": "18531",
    "Name": "ΠΕΙΡΑΙΩΣ"
  },
  {
    "PostCode": "14568",
    "Name": "ΚΡΥΟΝΕΡΙΟΥ"
  },
  {
    "PostCode": "14572",
    "Name": "ΔΡΟΣΙΑΣ"
  },
  {
    "PostCode": "14574",
    "Name": "ΡΟΔΟΠΟΛΗΣ"
  },
  {
    "PostCode": "10677",
    "Name": "ΑΘΗΝΑΙΩΝ"
  },
  {
    "PostCode": "10681",
    "Name": "ΑΘΗΝΑΙΩΝ"
  },
  {
    "PostCode": "18346",
    "Name": "ΜΟΣΧΑΤΟΥ"
  },
  {
    "PostCode": "11256",
    "Name": "ΑΘΗΝΑΙΩΝ"
  },
  {
    "PostCode": "19600",
    "Name": "ΕΛΕΥΣΙΝΑΣ"
  },
  {
    "PostCode": "11471",
    "Name": "ΑΘΗΝΑΙΩΝ"
  },
  {
    "PostCode": "14343",
    "Name": "ΝΕΑΣ ΦΙΛΑΔΕΛΦΕΙΑΣ"
  },
  {
    "PostCode": "17674",
    "Name": "ΚΑΛΛΙΘΕΑΣ"
  },
  {
    "PostCode": "19600",
    "Name": "ΜΑΓΟΥΛΑΣ"
  },
  {
    "PostCode": "10555",
    "Name": "ΑΘΗΝΑΙΩΝ"
  },
  {
    "PostCode": "10552",
    "Name": "ΑΘΗΝΑΙΩΝ"
  },
  {
    "PostCode": "10553",
    "Name": "ΑΘΗΝΑΙΩΝ"
  },
  {
    "PostCode": "10554",
    "Name": "ΑΘΗΝΑΙΩΝ"
  },
  {
    "PostCode": "10560",
    "Name": "ΑΘΗΝΑΙΩΝ"
  },
  {
    "PostCode": "10563",
    "Name": "ΑΘΗΝΑΙΩΝ"
  },
  {
    "PostCode": "10564",
    "Name": "ΑΘΗΝΑΙΩΝ"
  },
  {
    "PostCode": "11854",
    "Name": "ΑΘΗΝΑΙΩΝ"
  },
  {
    "PostCode": "13343",
    "Name": "ΑΝΩ ΛΙΟΣΙΩΝ"
  },
  {
    "PostCode": "14565",
    "Name": "ΑΓ.ΣΤΕΦΑΝΟΣ"
  },
  {
    "PostCode": "19300",
    "Name": "ΜΑΓΟΥΛΑ"
  },
  {
    "PostCode": "14563",
    "Name": "ΚΗΦΙΣΙΑ"
  },
  {
    "PostCode": "14343",
    "Name": "ΓΑΛΑΤΣΙ"
  },
  {
    "PostCode": "19600",
    "Name": "ΑΣΠΡΟΠΥΡΓΟΣ"
  },
  {
    "PostCode": "55535",
    "Name": "ΠΟΥΡΝΑΡΙ ΠΥΛΑΙΑΣ"
  },
  {
    "PostCode": "11475",
    "Name": "ΑΘΗΝΑ"
  },
  {
    "PostCode": "11522",
    "Name": "ΑΘΗΝΑ"
  },
  {
    "PostCode": "11852",
    "Name": "ΑΘΗΝΑ"
  },
  {
    "PostCode": "12462",
    "Name": "ΣΚΑΡΑΜΑΓΚΑΣ"
  },
  {
    "PostCode": "19010",
    "Name": "ΚΑΛΥΒΙΑ ΘΟΡΙΚΟΥ"
  },
  {
    "PostCode": "11146",
    "Name": "ΑΘΗΝΑΙΩΝ"
  },
  {
    "PostCode": "11522",
    "Name": "ΑΘΗΝΑΙΩΝ"
  },
  {
    "PostCode": "15343",
    "Name": "ΨΥΧΙΚΟΥ"
  },
  {
    "PostCode": "17343",
    "Name": "ΑΓ. ΔΗΜΗΤΡΙΟΣ"
  },
  {
    "PostCode": "57013",
    "Name": "ΕΥΚΑΡΠΙΑ"
  },
  {
    "PostCode": "19009",
    "Name": "ΝΕΑ ΜΑΚΡΗ"
  },
  {
    "PostCode": "15124",
    "Name": "ΜΑΡΟΥΣΙ"
  },
  {
    "PostCode": "19014",
    "Name": "ΑΦΙΔΝΕΣ"
  },
  {
    "PostCode": "11143",
    "Name": "ΑΘΗΝΑ"
  },
  {
    "PostCode": "19600",
    "Name": "ΜΑΓΟΥΛΑ"
  },
  {
    "PostCode": "45332",
    "Name": "ΙΩΑΝΝΙΝΑ 2"
  },
  {
    "PostCode": "19005",
    "Name": "ΝΕΑ ΜΑΚΡΗ- ΡΑΦΗΝΑ"
  },
  {
    "PostCode": "19005",
    "Name": "ΝΕΑ ΜΑΚΡΗ-ΡΑΦΗΝΑ"
  },
  {
    "PostCode": "19200",
    "Name": "ΑΣΠΡΟΠΥΡΓΟΣ"
  },
  {
    "PostCode": "15344",
    "Name": "ΓΛΥΚΑ ΝΕΡΑ"
  },
  {
    "PostCode": "54626",
    "Name": "ΚΕΝΤΡΟ"
  },
  {
    "PostCode": "57008",
    "Name": "Ν.ΙΩΝΙΑ"
  },
  {
    "PostCode": "16777",
    "Name": "ΕΛΛΗΝΙΚΟ"
  },
  {
    "PostCode": "54630",
    "Name": "ΣΤΑΥΡΟΥΠΟΛΗ"
  },
  {
    "PostCode": "57008",
    "Name": "ΚΟΥΦΑΛΙΑ"
  },
  {
    "PostCode": "57001",
    "Name": "ΠΥΛΑΙΑ"
  },
  {
    "PostCode": "11527",
    "Name": "ΑΘΗΝΑ"
  },
  {
    "PostCode": "32003",
    "Name": "ΔΙΣΤΟΜΟ"
  },
  {
    "PostCode": "70005",
    "Name": "ΧΕΡΣΟΝΗΣΟΣ"
  },
  {
    "PostCode": "54625",
    "Name": "ΚΕΝΤΡΟ"
  },
  {
    "PostCode": "54627",
    "Name": "ΛΙΜΑΝΙ"
  },
  {
    "PostCode": "14122",
    "Name": "ΜΕΤΑΜΟΡΦΩΣΗ"
  },
  {
    "PostCode": "14562",
    "Name": "ΚΗΦΙΣΙΑ"
  },
  {
    "PostCode": "54628",
    "Name": "ΚΑΛΟΧΩΡΙ"
  },
  {
    "PostCode": "19600",
    "Name": "ΕΛΕΥΣΙΝΑ"
  },
  {
    "PostCode": "15233",
    "Name": "ΧΑΛΑΝΔΡΙ"
  },
  {
    "PostCode": "15344",
    "Name": "ΓΕΡΑΚΑΣ"
  },
  {
    "PostCode": "13674",
    "Name": "ΑΧΑΡΝΑΙ"
  },
  {
    "PostCode": "17341",
    "Name": "ΑΓΙΟΣ ΔΗΜΗΤΡΙΟΣ"
  },
  {
    "PostCode": "12461",
    "Name": "ΣΚΑΡΑΜΑΓΚΑΣ"
  },
  {
    "PostCode": "12461",
    "Name": "ΣΧΙΣΤΟ"
  },
  {
    "PostCode": "11851",
    "Name": "ΚΟΥΚΑΚΙ"
  },
  {
    "PostCode": "15771",
    "Name": "Α.ΙΛΙΣΙΑ"
  },
  {
    "PostCode": "16673",
    "Name": "ΒΟΥΛΑ"
  },
  {
    "PostCode": "11525",
    "Name": "ΝΕΟΥ ΨΥΧΙΚΟΥ"
  },
  {
    "PostCode": "13344",
    "Name": "ΑΝΩ ΛΙΟΣΙΩΝ"
  },
  {
    "PostCode": "17236",
    "Name": "ΔΑΦΝΗΣ"
  },
  {
    "PostCode": "15231",
    "Name": "ΧΑΛΑΝΔΡΙ"
  },
  {
    "PostCode": "15237",
    "Name": "ΦΙΛΟΘΕΗ"
  },
  {
    "PostCode": "15452",
    "Name": "ΠΑΛΑΙΟ ΨΥΧΙΚΟ"
  },
  {
    "PostCode": "11145",
    "Name": "ΑΘΗΝΑ"
  },
  {
    "PostCode": "10678",
    "Name": "ΑΘΗΝΑΙΩΝ"
  },
  {
    "PostCode": "11143",
    "Name": "ΝΕΑΣ ΦΙΛΑΔΕΛΦΕΙΑΣ"
  },
  {
    "PostCode": "54627",
    "Name": "ΘΕΣΣΑΛΟΝΙΚΗ"
  },
  {
    "PostCode": "54643",
    "Name": "ΘΕΣΣΑΛΟΝΙΚΗ"
  },
  {
    "PostCode": "11741",
    "Name": "ΚΟΥΚΑΚΙ"
  },
  {
    "PostCode": "71500",
    "Name": "ΗΡΑΚΛΕΙΟ (ΓΑΖΙ)"
  },
  {
    "PostCode": "45500",
    "Name": "ΔΗΜΟΣ ΕΚΑΛΗΣ ΙΩΑΝΝΙΝΩΝ"
  },
  {
    "PostCode": "19019",
    "Name": "ΑΕΡΟΔΡΟΜΙΟ"
  },
  {
    "PostCode": "11855",
    "Name": "ΤΑΥΡΟΣ"
  },
  {
    "PostCode": "15232",
    "Name": "ΧΑΛΑΝΔΡΙ"
  },
  {
    "PostCode": "13671",
    "Name": "ΜΕΝΙΔΙ"
  },
  {
    "PostCode": "14568",
    "Name": "ΚΡΥΟΝΕΡΙ"
  },
  {
    "PostCode": "13674",
    "Name": "ΑΧΑΡΝΕΣ"
  },
  {
    "PostCode": "57012",
    "Name": "ΖΑΓΚΛΙΒΕΡΙ"
  },
  {
    "PostCode": "57014",
    "Name": "ΟΛΥΜΠΙΑΔΑ (ΧΑΛΚΙΔΙΚΗΣ)"
  },
  {
    "PostCode": "62052",
    "Name": "ΔΡΑΒΗΣΚΟΣ (ΣΕΡΡΩΝ)"
  },
  {
    "PostCode": "90000",
    "Name": "ΣΠΑΤΑ"
  },
  {
    "PostCode": "17342",
    "Name": "ΑΓ.ΔΗΜΗΤΡΙΟΣ"
  },
  {
    "PostCode": "17342",
    "Name": "ΑΓΙΟΣ ΔΗΜΗΤΡΙΟΣ"
  },
  {
    "PostCode": "15121",
    "Name": "ΜΑΡΟΥΣΙ"
  },
  {
    "PostCode": "11527",
    "Name": "ΠΑΠΑΓΟΥ"
  },
  {
    "PostCode": "17778",
    "Name": "ΑΘΗΝΑΙΩΝ"
  },
  {
    "PostCode": "10431",
    "Name": "ΑΘΗΝΑΙΩΝ"
  },
  {
    "PostCode": "10437",
    "Name": "ΑΘΗΝΑΙΩΝ"
  },
  {
    "PostCode": "13675",
    "Name": "ΑΧΑΡΝΑΙ"
  },
  {
    "PostCode": "16674",
    "Name": "ΓΛΥΦΑΔΑ"
  },
  {
    "PostCode": "54621",
    "Name": "ΘΕΣΣΑΛΟΝΙΚΗ"
  },
  {
    "PostCode": "19442",
    "Name": "ΚΟΡΩΠΙ"
  },
  {
    "PostCode": "18757",
    "Name": "ΠΕΙΡΑΙΑΣ"
  },
  {
    "PostCode": "18757",
    "Name": "ΠΕΙΡΑΙΑΣ - ΠΥΛΗ Ε2"
  },
  {
    "PostCode": "54645",
    "Name": "ΘΕΣΣΑΛΟΝΙΚΗ"
  },
  {
    "PostCode": "54636",
    "Name": "ΘΕΣΣΑΛΟΝΙΚΗ"
  },
  {
    "PostCode": "56429",
    "Name": "Ν.ΕΥΚΑΡΠΙΑ"
  },
  {
    "PostCode": "14342",
    "Name": "Ν.ΦΙΛΑΔΕΛΦΕΙΑ"
  },
  {
    "PostCode": "14342",
    "Name": "ΝΕΑ ΙΩΝΙΑ"
  },
  {
    "PostCode": "19010",
    "Name": "ΛΑΥΡΙΟ"
  },
  {
    "PostCode": "13677",
    "Name": "ΜΕΝΙΔΙ"
  },
  {
    "PostCode": "13679",
    "Name": "ΜΕΝΙΔΙ"
  },
  {
    "PostCode": "71304",
    "Name": "ΗΡΑΚΛΕΙΟ"
  },
  {
    "PostCode": "18535",
    "Name": "ΠΕΙΡΑΙΑΣ"
  },
  {
    "PostCode": "85700",
    "Name": "ΚΑΡΠΑΘΟΣ"
  },
  {
    "PostCode": "84703",
    "Name": "ΣΑΝΤΟΡΙΝΗ"
  },
  {
    "PostCode": "18901",
    "Name": "ΣΑΛΑΜΙΝΑ"
  },
  {
    "PostCode": "18902",
    "Name": "ΣΑΛΑΜΙΝΑ"
  },
  {
    "PostCode": "18903",
    "Name": "ΣΑΛΑΜΙΝΑ"
  },
  {
    "PostCode": "15310",
    "Name": "ΑΓ.ΠΑΡΑΣΚΕΥΗ"
  },
  {
    "PostCode": "10434",
    "Name": "ΑΘΗΝΑΙΩΝ"
  },
  {
    "PostCode": "10438",
    "Name": "ΑΘΗΝΑΙΩΝ"
  },
  {
    "PostCode": "10440",
    "Name": "ΑΘΗΝΑΙΩΝ"
  },
  {
    "PostCode": "11142",
    "Name": "ΝΕΑΣ ΙΩΝΙΑΣ"
  },
  {
    "PostCode": "11142",
    "Name": "ΓΑΛΑΤΣΙΟΥ"
  },
  {
    "PostCode": "12242",
    "Name": "ΚΕΡΑΤΣΙΝΙΟΥ"
  },
  {
    "PostCode": "55132",
    "Name": "ΦΟΙΝΙΚΑΣ"
  },
  {
    "PostCode": "57001",
    "Name": "ΑΕΡΟΔΡΟΜΙΟ"
  },
  {
    "PostCode": "71601",
    "Name": "ΗΡΑΚΛΕΙΟ"
  },
  {
    "PostCode": "55132",
    "Name": "ΑΓ.ΙΩΑΝΝΗΣ ΦΟΙΝΙΚΑΣ"
  },
  {
    "PostCode": "11636",
    "Name": "ΜΕΤΣ"
  },
  {
    "PostCode": "14561",
    "Name": "ΚΗΦΙΣΙΑ"
  },
  {
    "PostCode": "18233",
    "Name": "ΡΕΝΤΗΣ"
  },
  {
    "PostCode": "19011",
    "Name": "ΑΓ.ΣΤΕΦΑΝΟΣ"
  },
  {
    "PostCode": "14564",
    "Name": "ΝΕΑ ΚΗΦΙΣΙΑ"
  },
  {
    "PostCode": "57008",
    "Name": "ΔΙΑΒΑΤΑ ΙΩΝΙΑ"
  },
  {
    "PostCode": "90000",
    "Name": "ΑΕΡΟΔΡΟΜΟ"
  },
  {
    "PostCode": "54249",
    "Name": "ΑΛΛΑΤΙΝΗ"
  },
  {
    "PostCode": "11471",
    "Name": "ΑΜΠΕΛΟΚΗΠΟΙ"
  },
  {
    "PostCode": "71409",
    "Name": "ΗΡΑΚΛΕΙΟ"
  },
  {
    "PostCode": "56626",
    "Name": "ΣΥΚΙΕΣ"
  },
  {
    "PostCode": "54629",
    "Name": "ΒΑΡΔΑΡΙ"
  },
  {
    "PostCode": "54630",
    "Name": "ΒΑΡΔΑΡΙ"
  },
  {
    "PostCode": "54626",
    "Name": "ΒΑΡΔΑΡΙ"
  },
  {
    "PostCode": "57008",
    "Name": "ΙΩΝΙΑ - ΔΙΑΒΑΤΑ"
  },
  {
    "PostCode": "54625",
    "Name": "ΛΙΜΑΝΙ"
  },
  {
    "PostCode": "54626",
    "Name": "ΛΙΜΑΝΙ"
  },
  {
    "PostCode": "10677",
    "Name": "ΑΘΗΝΑ"
  },
  {
    "PostCode": "17778",
    "Name": "ΜΟΣΧΑΤΟ"
  },
  {
    "PostCode": "19009",
    "Name": "ΘΕΣΗ ΠΕΤΡΕΖΑ"
  },
  {
    "PostCode": "10444",
    "Name": "ΣΕΠΟΛΙΑ"
  },
  {
    "PostCode": "14671",
    "Name": "ΝΕΑ ΕΡΥΘΡΑΙΑ"
  },
  {
    "PostCode": "56429",
    "Name": "ΠΑΛΑΙΑ ΣΥΜΜΑΧΙΚΗ ΣΤΑΥΡΟΥΠ"
  },
  {
    "PostCode": "18547",
    "Name": "ΠΕΙΡΑΙΑΣ"
  },
  {
    "PostCode": "18510",
    "Name": "ΔΟΥΚΟΥ"
  },
  {
    "PostCode": "18757",
    "Name": "ΠΕΙΡΑΙΑΣ ΠΥΛΗ Ε1"
  },
  {
    "PostCode": "18345",
    "Name": "ΜΟΣΧΑΤΟ"
  },
  {
    "PostCode": "14123",
    "Name": "ΛΥΚΟΒΡΥΣΗ"
  },
  {
    "PostCode": "12242",
    "Name": "ΧΑΙΔΑΡΙ"
  },
  {
    "PostCode": "18120",
    "Name": "ΚΟΡΥΔΑΛΛΟΣ"
  },
  {
    "PostCode": "12136",
    "Name": "ΠΕΡΙΣΤΕΡΙ"
  },
  {
    "PostCode": "18537",
    "Name": "ΠΕΙΡΑΙΑΣ"
  },
  {
    "PostCode": "11471",
    "Name": "ΑΘΗΝΑ"
  },
  {
    "PostCode": "10447",
    "Name": "ΜΟΣΧΑΤΟ"
  },
  {
    "PostCode": "14671",
    "Name": "ΑΓ. ΣΤΕΦΑΝΟΣ"
  },
  {
    "PostCode": "19400",
    "Name": "ΓΛΥΦΑΔΑ"
  },
  {
    "PostCode": "15341",
    "Name": "ΑΓ.ΠΑΡΑΣΚΕΥΗ"
  },
  {
    "PostCode": "15126",
    "Name": "ΜΑΡΟΥΣΙ(ΠΑΡΑΔΕΙΣΟΣ)"
  },
  {
    "PostCode": "15126",
    "Name": "ΜΑΡΟΥΣΙ (ΠΑΡΑΔΕΙΣΟΣ)"
  },
  {
    "PostCode": "17672",
    "Name": "ΚΑΛΛΙΘΕΑ"
  },
  {
    "PostCode": "13673",
    "Name": "ΑΧΑΡΝΑΙ"
  },
  {
    "PostCode": "12133",
    "Name": "ΠΕΡΙΣΤΕΡΙ"
  },
  {
    "PostCode": "19300",
    "Name": "ΦΥΛΗ"
  },
  {
    "PostCode": "11526",
    "Name": "ΑΘΗΝΑ"
  },
  {
    "PostCode": "57001",
    "Name": "ΠΑΤΡΙΑΡΧΙΚΑ ΦΟΙΝΙΚΑ"
  },
  {
    "PostCode": "57001",
    "Name": "ΠΑΤΡΙΑΡΧΙΚΑ ΠΥΛΑΙΑ"
  },
  {
    "PostCode": "15569",
    "Name": "ΠΑΠΑΓΟΥ"
  },
  {
    "PostCode": "13343",
    "Name": "ΑΝΩ ΛΙΟΣΙΑ"
  },
  {
    "PostCode": "13672",
    "Name": "ΜΕΝΙΔΙ (ΑΧΑΡΝΑΙ)"
  },
  {
    "PostCode": "16672",
    "Name": "ΒΑΡΗ"
  },
  {
    "PostCode": "18536",
    "Name": "ΠΕΙΡΑΙΑΣ"
  },
  {
    "PostCode": "54628",
    "Name": "ΜΕΝΕΜΕΝΗ ΛΑΧΑΝΑΓΟΡΑ"
  },
  {
    "PostCode": "17561",
    "Name": "ΠΑΛΑΙΟ ΦΑΛΗΡΟ"
  },
  {
    "PostCode": "56625",
    "Name": "ΣΥΚΙΕΣ"
  },
  {
    "PostCode": "15235",
    "Name": "ΧΑΛΑΝΔΡΙ"
  },
  {
    "PostCode": "16672",
    "Name": "ΚΟΡΩΠΙ"
  },
  {
    "PostCode": "10557",
    "Name": "ΑΘΗΝΑ"
  },
  {
    "PostCode": "56430",
    "Name": "ΕΥΚΑΡΠΙΑ"
  },
  {
    "PostCode": "11525",
    "Name": "ΑΘΗΝΑ"
  },
  {
    "PostCode": "13671",
    "Name": "ΑΧΑΡΝΕΣ"
  },
  {
    "PostCode": "13672",
    "Name": "ΑΧΑΡΝΕΣ"
  },
  {
    "PostCode": "19011",
    "Name": "ΑΥΛΩΝΑΣ"
  },
  {
    "PostCode": "16121",
    "Name": "ΚΑΙΣΑΡΙΑΝΗ"
  },
  {
    "PostCode": "13341",
    "Name": "Α.ΛΙΟΣΙΑ"
  },
  {
    "PostCode": "54627",
    "Name": "ΝΕΑ ΔΥΤΙΚΗ ΕΙΣΟΔΟΣ"
  },
  {
    "PostCode": "55535",
    "Name": "Κ12 ΠΕΡΙΦΕΡΕΙΑΚΗ ΟΔΟΣ"
  },
  {
    "PostCode": "57001",
    "Name": "ΚΙΣ ΤΟΥΜΠΑ ΠΥΛΑΙΑ"
  },
  {
    "PostCode": "19007",
    "Name": "ΜΑΡΑΘΩΝΑΣ"
  },
  {
    "PostCode": "54639",
    "Name": "ΘΕΣΣΑΛΟΝΙΚΗ"
  },
  {
    "PostCode": "16675",
    "Name": "ΓΛΥΦΑΔΑ"
  },
  {
    "PostCode": "16122",
    "Name": "ΚΑΙΣΑΡΙΑΝΗ"
  },
  {
    "PostCode": "57300",
    "Name": "ΚΟΥΦΑΛΙΑ"
  },
  {
    "PostCode": "54622",
    "Name": "ΘΕΣΣΑΛΟΝΙΚΗ"
  },
  {
    "PostCode": "12132",
    "Name": "ΠΕΡΙΣΤΕΡΙ"
  }
]